     2.100          NAVIGATION                              RINEX VERSION / TYPE
fic2rin                                 08/27/2016 01:10:28 PGM / RUN BY / DATE
                                                            END OF HEADER
29 16  8 26 16  0  0.0  .652692280710D-03 -.102318153949D-11  .000000000000D+00
     .880000000000D+02 -.875625000000D+02  .432732310752D-08 -.111427692163D+01
    -.447966158390D-05  .621927203611D-03  .657141208649D-05  .515376397133D+04
     .489600000000D+06  .316649675369D-07  .149572599506D+01  .745058059692D-08
     .978063845382D+00  .263812500000D+03  .112579925794D+00 -.806176437627D-08
    -.317870383435D-10  .100000000000D+01  .191100000000D+04  .000000000000D+00
     .340000000000D+01  .000000000000D+00 -.102445483208D-07  .880000000000D+02
     .482406000000D+06  .400000000000D+01
30 16  8 26 16  0  0.0  .147422775626D-03  .181898940355D-11  .000000000000D+00
     .101000000000D+03  .964375000000D+02  .451447376024D-08  .448390872022D+00
     .503286719322D-05  .240246660542D-02  .804476439953D-05  .515378421402D+04
     .489600000000D+06  .119209289551D-06 -.588182045469D+00  .316649675369D-07
     .951198813386D+00  .219500000000D+03  .312023695645D+01 -.817176895841D-08
     .140720147273D-09  .100000000000D+01  .191100000000D+04  .000000000000D+00
     .340000000000D+01  .000000000000D+00  .372529029846D-08  .101000000000D+03
     .482406000000D+06  .400000000000D+01
31 16  8 26 16  0  0.0  .251428224146D-03 -.204636307899D-11  .000000000000D+00
     .110000000000D+02  .702187500000D+02  .412445751450D-08  .185435245951D+00
     .379234552383D-05  .827386975288D-02  .846385955811D-05  .515354265976D+04
     .489600000000D+06  .633299350739D-07 -.621265125912D+00 -.102445483208D-06
     .970206389493D+00  .218156250000D+03 -.385350329239D+00 -.805462122159D-08
     .721458623076D-10  .100000000000D+01  .191100000000D+04  .000000000000D+00
     .240000000000D+01  .000000000000D+00 -.135041773319D-07  .110000000000D+02
     .482406000000D+06  .400000000000D+01
25 16  8 26 15 59 44.0 -.234214589000D-03 -.693489710102D-11  .000000000000D+00
     .100000000000D+01  .353125000000D+02  .439446876155D-08 -.776147174171D+00
     .201351940632D-05  .558028998785D-02  .378862023354D-05  .515370811844D+04
     .489584000000D+06  .856816768646D-07  .394625635090D+00  .141561031342D-06
     .978538582780D+00  .317968750000D+03  .792360958569D+00 -.826105839196D-08
     .171078554680D-09  .100000000000D+01  .191100000000D+04  .000000000000D+00
     .240000000000D+01  .000000000000D+00  .558793544769D-08  .100000000000D+01
     .483936000000D+06  .400000000000D+01
30 16  8 26 15 59 44.0  .147423241287D-03  .181898940355D-11  .000000000000D+00
     .000000000000D+00  .964375000000D+02  .451447376024D-08  .446057800029D+00
     .503286719322D-05  .240245996974D-02  .804476439953D-05  .515378422165D+04
     .489584000000D+06  .119209289551D-06 -.588181903566D+00  .316649675369D-07
     .951198825089D+00  .219500000000D+03  .312023640493D+01 -.817176895841D-08
     .140720147273D-09  .100000000000D+01  .191100000000D+04  .000000000000D+00
     .240000000000D+01  .000000000000D+00  .372529029846D-08  .000000000000D+00
     .483936000000D+06  .400000000000D+01
 1 16  8 26 15 59 44.0  .317362137139D-04  .136424205266D-11  .000000000000D+00
     .300000000000D+01 -.239687500000D+02  .452304554586D-08  .105626716833D+01
    -.105611979961D-05  .585090997629D-02  .981055200100D-05  .515363912392D+04
     .489584000000D+06 -.335276126862D-07  .249354480384D+01  .949949026108D-07
     .965272904542D+00  .191531250000D+03  .530551868209D+00 -.803497754621D-08
     .162149611325D-09  .100000000000D+01  .191100000000D+04  .000000000000D+00
     .240000000000D+01  .000000000000D+00  .512227416039D-08  .300000000000D+01
     .485316000000D+06  .400000000000D+01
22 16  8 26 15 59 44.0  .261652749032D-03 -.977706804406D-11  .000000000000D+00
     .170000000000D+02  .262500000000D+01  .566523597982D-08  .266671868969D+01
     .316649675369D-07  .752658618148D-02  .608153641224D-05  .515373933029D+04
     .489584000000D+06  .484287738800D-07 -.278406697648D+01 -.111758708954D-06
     .923355566106D+00  .237218750000D+03 -.187262179449D+01 -.847963892528D-08
    -.260725145963D-10  .100000000000D+01  .191100000000D+04  .000000000000D+00
     .240000000000D+01  .000000000000D+00 -.176951289177D-07  .170000000000D+02
     .486816000000D+06  .400000000000D+01
29 16  8 26 15 59 44.0  .652689486742D-03 -.102318153949D-11  .000000000000D+00
     .400000000000D+01 -.875625000000D+02  .432732310752D-08 -.111661390254D+01
    -.447966158390D-05  .621926854365D-03  .656954944134D-05  .515376396561D+04
     .489584000000D+06  .316649675369D-07  .149572617354D+01  .745058059692D-08
     .978063836605D+00  .263812500000D+03  .112583310987D+00 -.806176437627D-08
    -.317870383435D-10  .100000000000D+01  .191100000000D+04  .000000000000D+00
     .240000000000D+01  .000000000000D+00 -.102445483208D-07  .400000000000D+01
     .487386000000D+06  .400000000000D+01
 1 16  8 26 17 59 44.0  .317459926009D-04  .136424205266D-11  .000000000000D+00
     .170000000000D+02 -.364687500000D+02  .445232831449D-08  .210616303730D+01
    -.186637043953D-05  .585070566740D-02  .100992619991D-04  .515364250565D+04
     .496784000000D+06 -.206753611565D-06  .249348649046D+01 -.149011611938D-07
     .965274778540D+00  .188125000000D+03  .530857533239D+00 -.791532970525D-08
     .281083136812D-09  .100000000000D+01  .191100000000D+04  .000000000000D+00
     .240000000000D+01  .000000000000D+00  .512227416039D-08  .170000000000D+02
     .489606000000D+06  .400000000000D+01
22 16  8 26 17 59 44.0  .261581968516D-03 -.977706804406D-11  .000000000000D+00
     .180000000000D+02  .884375000000D+01  .568559397067D-08 -.256633182767D+01
     .433996319771D-06  .752539269160D-02  .648945569992D-05  .515374155426D+04
     .496784000000D+06  .165775418282D-06 -.278412913148D+01  .707805156708D-07
     .923355808950D+00  .230968750000D+03 -.187260776072D+01 -.852285501112D-08
     .143220251413D-09  .100000000000D+01  .191100000000D+04  .000000000000D+00
     .240000000000D+01  .000000000000D+00 -.176951289177D-07  .180000000000D+02
     .489606000000D+06  .400000000000D+01
25 16  8 26 17 59 44.0 -.234264414757D-03 -.693489710102D-11  .000000000000D+00
     .300000000000D+01  .361875000000D+02  .433803783955D-08  .274035283378D+00
     .175088644028D-05  .558048230596D-02  .380538403988D-05  .515370852852D+04
     .496784000000D+06 -.428408384323D-07  .394565760779D+00  .106170773506D-06
     .978539596582D+00  .319812500000D+03  .792337184687D+00 -.831534636755D-08
     .163221084528D-09  .100000000000D+01  .191100000000D+04  .000000000000D+00
     .240000000000D+01  .000000000000D+00  .558793544769D-08  .300000000000D+01
     .489606000000D+06  .400000000000D+01
29 16  8 26 17 59 44.0  .652682036161D-03 -.102318153949D-11  .000000000000D+00
     .500000000000D+01 -.949375000000D+02  .427053502778D-08 -.653610497729D-01
    -.475160777569D-05  .621982966550D-03  .689923763275D-05  .515376478577D+04
     .496784000000D+06  .335276126862D-07  .149566813519D+01 -.149011611938D-07
     .978063734200D+00  .258906250000D+03  .111453683682D+00 -.804033491222D-08
    -.225009372544D-10  .100000000000D+01  .191100000000D+04  .000000000000D+00
     .240000000000D+01  .000000000000D+00 -.102445483208D-07  .500000000000D+01
     .489606000000D+06  .400000000000D+01
30 16  8 26 17 59 44.0  .147436279804D-03  .181898940355D-11  .000000000000D+00
     .100000000000D+02  .851875000000D+02  .449911597767D-08  .149663512111D+01
     .452063977718D-05  .240144494455D-02  .805035233498D-05  .515378141594D+04
     .496784000000D+06 -.100582838058D-06 -.588239293842D+00  .819563865662D-07
     .951199721858D+00  .220000000000D+03  .311977289689D+01 -.804069206996D-08
    -.142863093678D-10  .100000000000D+01  .191100000000D+04  .000000000000D+00
     .240000000000D+01  .000000000000D+00  .372529029846D-08  .100000000000D+02
     .489606000000D+06  .400000000000D+01
 2 16  8 26 18  0  0.0  .560593325645D-03 -.454747350886D-11  .000000000000D+00
     .880000000000D+02 -.450000000000D+02  .481234331056D-08  .253737789348D+01
    -.244937837124D-05  .158804282546D-01  .102594494820D-04  .515362546921D+04
     .496800000000D+06  .279396772385D-07  .244600525764D+01 -.201165676117D-06
     .944054774368D+00  .168218750000D+03 -.209096866688D+01 -.785747015231D-08
     .275368613065D-09  .100000000000D+01  .191100000000D+04  .000000000000D+00
     .340000000000D+01  .000000000000D+00 -.204890966415D-07  .880000000000D+02
     .489606000000D+06  .400000000000D+01
 3 16  8 26 18  0  0.0 -.832257792354D-04 -.250111042988D-11  .000000000000D+00
     .170000000000D+02  .796875000000D+01  .490949021426D-08  .182727960391D+01
     .454485416412D-06  .142637174577D-03  .681169331074D-05  .515363153076D+04
     .496800000000D+06  .912696123123D-07 -.274838243124D+01  .186264514923D-08
     .959687274118D+00  .245218750000D+03 -.332131947177D+00 -.824105755884D-08
     .357157734196D-10  .100000000000D+01  .191100000000D+04  .000000000000D+00
     .240000000000D+01  .000000000000D+00  .139698386192D-08  .170000000000D+02
     .489606000000D+06  .400000000000D+01
 4 16  8 26 18  0  0.0 -.260372180492D-03 -.227373675443D-12  .000000000000D+00
     .990000000000D+02  .351562500000D+02  .545487007438D-08 -.943192577265D+00
     .203773379326D-05  .843443383928D-02  .370480120182D-05  .515367134476D+04
     .496800000000D+06  .894069671631D-07  .416593147977D+00  .193715095520D-06
     .983312998796D+00  .318687500000D+03  .901168735466D+00 -.821927093705D-08
     .168221292806D-09  .100000000000D+01  .191100000000D+04  .000000000000D+00
     .340000000000D+01  .630000000000D+02 -.195577740669D-07  .990000000000D+02
     .489606000000D+06  .400000000000D+01
